{
  "type": "FeatureCollection",
  "features": [
    {
      "type": "Feature",
      "id": "location_aksu",
      "properties": {
        "kind": "location",
        "category": "route-node",
        "label": "Aksu",
        "title": "Aksu",
        "description": "A waypoint on the northern route. An oasis providing critical supplies for westbound merchants.",
        "fantasyName": "Aksu",
        "visibility": "public"
      },
      "geometry": {
        "type": "Point",
        "coordinates": [
          80.26,
          41.17
        ]
      }
    },
    {
      "type": "Feature",
      "id": "location_alak-mor",
      "properties": {
        "kind": "location",
        "category": "landmark",
        "label": "Alak-Mor",
        "title": "Alak-Mor",
        "description": "Great Colored Depths of the Eastern Highlands",
        "fantasyName": "Alak-Mor",
        "visibility": "public"
      },
      "geometry": {
        "type": "Point",
        "coordinates": [
          81.5,
          46.3
        ]
      }
    },
    {
      "type": "Feature",
      "id": "location_anvil-sunder-switchbacks",
      "properties": {
        "kind": "location",
        "category": "route-node",
        "label": "The Anvil-Sunder Switchbacks",
        "title": "The Anvil-Sunder Switchbacks",
        "description": "A punishing alternate high route of tight switchbacks and exposed ridgelines.",
        "fantasyName": "The Anvil-Sunder Switchbacks",
        "visibility": "public"
      },
      "geometry": {
        "type": "Point",
        "coordinates": [
          74.87956784432755,
          40.50249308507127
        ]
      }
    },
    {
      "type": "Feature",
      "id": "location_balkh-kamen",
      "properties": {
        "kind": "location",
        "category": "landmark",
        "label": "Balkh-Kamen",
        "title": "Balkh-Kamen",
        "description": "Stone Mirror of the Central Tarimhighlands",
        "fantasyName": "Balkh-Kamen",
        "visibility": "public"
      },
      "geometry": {
        "type": "Point",
        "coordinates": [
          74.9,
          46.5
        ]
      }
    },
    {
      "type": "Feature",
      "id": "location_balkh",
      "properties": {
        "kind": "location",
        "category": "city",
        "label": "Balkh",
        "title": "Balkh",
        "description": "Once the 'Mother of Cities,' Balkh was destroyed by Genghis Khan and never fully recovered. Now a haunting reminder of past glory.",
        "fantasyName": "Balkh",
        "visibility": "public"
      },
      "geometry": {
        "type": "Point",
        "coordinates": [
          66.9,
          36.76
        ]
      }
    },
    {
      "type": "Feature",
      "id": "location_black-timber-post",
      "properties": {
        "kind": "location",
        "category": "route-node",
        "label": "Black-Timber Post",
        "title": "Black-Timber Post",
        "description": "Fortified overnight station with stables and a small shrine; a safe stop when the weather turns.",
        "fantasyName": "Black-Timber Post",
        "visibility": "public"
      },
      "geometry": {
        "type": "Point",
        "coordinates": [
          82.3,
          41.05
        ]
      }
    },
    {
      "type": "Feature",
      "id": "location_bukhara",
      "properties": {
        "kind": "location",
        "category": "city",
        "label": "Bukhara",
        "title": "Bukhara",
        "description": "Center of Islamic scholarship and trade. A major city of Sogdiana with 140+ architectural monuments.",
        "fantasyName": "Bukhara",
        "visibility": "public"
      },
      "geometry": {
        "type": "Point",
        "coordinates": [
          64.43,
          39.77
        ]
      }
    },
    {
      "type": "Feature",
      "id": "location_buried-lens",
      "properties": {
        "kind": "location",
        "category": "sacred-site",
        "label": "The Buried Lens",
        "title": "The Buried Lens",
        "description": "A half-excavated relic site where glassy strata and strange echoes suggest buried ancient works.",
        "fantasyName": "The Buried Lens",
        "visibility": "public"
      },
      "geometry": {
        "type": "Point",
        "coordinates": [
          86.2,
          41.4
        ]
      }
    },
    {
      "type": "Feature",
      "id": "location_caravan-crypt",
      "properties": {
        "kind": "location",
        "category": "route-node",
        "label": "The Caravan-Crypt",
        "title": "The Caravan-Crypt",
        "description": "A sealed cache-chamber used by merchants in hard times; its entrance is easy to miss without a guide.",
        "fantasyName": "The Caravan-Crypt",
        "visibility": "public"
      },
      "geometry": {
        "type": "Point",
        "coordinates": [
          83.6,
          41.9
        ]
      }
    },
    {
      "type": "Feature",
      "id": "location_chang-an",
      "properties": {
        "kind": "location",
        "category": "city",
        "label": "Chang'an",
        "title": "Chang'an",
        "description": "The eastern terminus of the Silk Road. An imperial capital with 12-mile walls built in 1370. Where merchants complete their epic journeys.",
        "fantasyName": "Chang'an",
        "visibility": "public"
      },
      "geometry": {
        "type": "Point",
        "coordinates": [
          109.26,
          34.34
        ]
      }
    },
    {
      "type": "Feature",
      "id": "location_charklik",
      "properties": {
        "kind": "location",
        "category": "route-node",
        "label": "Charklik",
        "title": "Charklik",
        "description": "A waypoint on the southern route between desert sections.",
        "fantasyName": "Charklik",
        "visibility": "public"
      },
      "geometry": {
        "type": "Point",
        "coordinates": [
          88.15,
          39.0
        ]
      }
    },
    {
      "type": "Feature",
      "id": "location_cherchen",
      "properties": {
        "kind": "location",
        "category": "route-node",
        "label": "Cherchen",
        "title": "Cherchen",
        "description": "A waypoint on the southern route between eastern and western Taklamakan sections.",
        "fantasyName": "Cherchen",
        "visibility": "public"
      },
      "geometry": {
        "type": "Point",
        "coordinates": [
          85.55,
          38.14
        ]
      }
    },
    {
      "type": "Feature",
      "id": "location_dunhuang",
      "properties": {
        "kind": "location",
        "category": "sacred-site",
        "label": "Dunhuang",
        "title": "Dunhuang",
        "description": "Gateway to China; home to the Mogao Caves with thousands of Buddhist artworks spanning centuries.",
        "fantasyName": "Dunhuang",
        "visibility": "public"
      },
      "geometry": {
        "type": "Point",
        "coordinates": [
          94.67,
          40.15
        ]
      }
    },
    {
      "type": "Feature",
      "id": "location_endere",
      "properties": {
        "kind": "location",
        "category": "route-node",
        "label": "Endere",
        "title": "Endere",
        "description": "An isolated waypoint on the southern route through harsh desert.",
        "fantasyName": "Endere",
        "visibility": "public"
      },
      "geometry": {
        "type": "Point",
        "coordinates": [
          88.74,
          36.21
        ]
      }
    },
    {
      "type": "Feature",
      "id": "location_isyk-zhel",
      "properties": {
        "kind": "location",
        "category": "landmark",
        "label": "Isyk-Zhel",
        "title": "Isyk-Zhel",
        "description": "Warm Winds of the Mountain Realm",
        "fantasyName": "Isyk-Zhel",
        "visibility": "public"
      },
      "geometry": {
        "type": "Point",
        "coordinates": [
          76.9,
          42.4
        ]
      }
    },
    {
      "type": "Feature",
      "id": "location_jade-gate",
      "properties": {
        "kind": "location",
        "category": "route-node",
        "label": "Jade Gate",
        "title": "Jade Gate",
        "description": "The western gateway to imperial China. A heavily fortified checkpoint where all merchants are inspected and taxed.",
        "fantasyName": "Jade Gate",
        "visibility": "secret"
      },
      "geometry": {
        "type": "Point",
        "coordinates": [
          94.5855,
          40.339
        ]
      }
    },
    {
      "type": "Feature",
      "id": "location_khotan",
      "properties": {
        "kind": "location",
        "category": "city",
        "label": "Khotan",
        "title": "Khotan",
        "description": "The jade capital of the Silk Road. A mountain kingdom that converted from Buddhism to Islam, but jade remains its lifeblood.",
        "fantasyName": "Khotan",
        "visibility": "public"
      },
      "geometry": {
        "type": "Point",
        "coordinates": [
          79.92,
          37.12
        ]
      }
    },
    {
      "type": "Feature",
      "id": "location_kucha",
      "properties": {
        "kind": "location",
        "category": "sacred-site",
        "label": "Kucha",
        "title": "Kucha",
        "description": "A major Buddhist center with magnificent Kizil Caves nearby. A place of pilgrimage and monastic study.",
        "fantasyName": "Kucha",
        "visibility": "public"
      },
      "geometry": {
        "type": "Point",
        "coordinates": [
          82.95,
          41.73
        ]
      }
    },
    {
      "type": "Feature",
      "id": "location_maralbashi",
      "properties": {
        "kind": "location",
        "category": "route-node",
        "label": "Maralbashi",
        "title": "Maralbashi",
        "description": "A waypoint at the base of mountain passes. Guides here help merchants navigate the treacherous western mountain crossing.",
        "fantasyName": "Maralbashi",
        "visibility": "public"
      },
      "geometry": {
        "type": "Point",
        "coordinates": [
          78.53602,
          39.77193
        ]
      }
    },
    {
      "type": "Feature",
      "id": "location_merv",
      "properties": {
        "kind": "location",
        "category": "city",
        "label": "Merv (Mary)",
        "title": "Merv (Mary)",
        "description": "Once a great oasis city, destroyed by Genghis Khan's son. Now rebuilt as Mary, a smaller settlement.",
        "fantasyName": "Merv (Mary)",
        "visibility": "public"
      },
      "geometry": {
        "type": "Point",
        "coordinates": [
          61.83,
          37.66
        ]
      }
    },
    {
      "type": "Feature",
      "id": "location_miran-temple-district",
      "properties": {
        "kind": "location",
        "category": "route-node",
        "label": "Miran Temple District",
        "title": "Miran Temple District",
        "description": "Ruined temple compounds and broken statuary beyond Miran's waypoint; haunted by wind and sand.",
        "fantasyName": "Miran Temple District",
        "visibility": "public"
      },
      "geometry": {
        "type": "Point",
        "coordinates": [
          88.15,
          40.47
        ]
      }
    },
    {
      "type": "Feature",
      "id": "location_miran",
      "properties": {
        "kind": "location",
        "category": "route-node",
        "label": "Miran",
        "title": "Miran",
        "description": "A waypoint on the southern desert route. An ancient settlement with ruins of Buddhist temples.",
        "fantasyName": "Miran",
        "visibility": "public"
      },
      "geometry": {
        "type": "Point",
        "coordinates": [
          88.07,
          40.52
        ]
      }
    },
    {
      "type": "Feature",
      "id": "location_niya-outer-fields",
      "properties": {
        "kind": "location",
        "category": "route-node",
        "label": "Niya Outer Fields",
        "title": "Niya Outer Fields",
        "description": "Collapsed irrigation lines and wind-buried walls on the approach to Niya; easy to miss in a sandstorm.",
        "fantasyName": "Niya Outer Fields",
        "visibility": "public"
      },
      "geometry": {
        "type": "Point",
        "coordinates": [
          81.05,
          37.12
        ]
      }
    },
    {
      "type": "Feature",
      "id": "location_niya",
      "properties": {
        "kind": "location",
        "category": "route-node",
        "label": "Niya",
        "title": "Niya",
        "description": "Ancient oasis ruins on the southern route. Archaeological treasures hidden in the sands await discovery.",
        "fantasyName": "Niya",
        "visibility": "public"
      },
      "geometry": {
        "type": "Point",
        "coordinates": [
          81.18,
          37.07
        ]
      }
    },
    {
      "type": "Feature",
      "id": "location_salt-reed-oasis",
      "properties": {
        "kind": "location",
        "category": "oasis",
        "label": "Salt-Reed Oasis",
        "title": "Salt-Reed Oasis",
        "description": "A reliable water stop at the edge of a brutal stretch; reeds and salt flats mark it from afar.",
        "fantasyName": "Salt-Reed Oasis",
        "visibility": "public"
      },
      "geometry": {
        "type": "Point",
        "coordinates": [
          87.9862,
          39.554
        ]
      }
    },
    {
      "type": "Feature",
      "id": "location_samarkand",
      "properties": {
        "kind": "location",
        "category": "city",
        "label": "Samarqandh",
        "title": "Samarqandh",
        "description": "A major hub on the Silk Road, known for its bazaars and monumental architecture.",
        "fantasyName": "Samarqandh",
        "visibility": "public"
      },
      "geometry": {
        "type": "Point",
        "coordinates": [
          66.97,
          39.65
        ]
      }
    },
    {
      "type": "Feature",
      "id": "location_stone-ledger-gate",
      "properties": {
        "kind": "location",
        "category": "route-node",
        "label": "The Stone Ledger Gate",
        "title": "The Stone Ledger Gate",
        "description": "A controlled high pass where weights, measures, and cargo manifests are certified before crossing.",
        "fantasyName": "The Stone Ledger Gate",
        "visibility": "public"
      },
      "geometry": {
        "type": "Point",
        "coordinates": [
          75.2,
          40.4
        ]
      }
    },
    {
      "type": "Feature",
      "id": "location_tashkent",
      "properties": {
        "kind": "location",
        "category": "city",
        "label": "Tashkent",
        "title": "Tashkent",
        "description": "The largest city in Central Asia. Known as the 'Stone City' for its fortifications.",
        "fantasyName": "Tashkent",
        "visibility": "public"
      },
      "geometry": {
        "type": "Point",
        "coordinates": [
          69.24,
          41.31
        ]
      }
    },
    {
      "type": "Feature",
      "id": "location_turfan",
      "properties": {
        "kind": "location",
        "category": "route-node",
        "label": "Turfan Depression",
        "title": "Turfan Depression",
        "description": "An oasis in a depression, protected from harsh desert winds. Known for cultivation of grapes and wine production.",
        "fantasyName": "Turfan Depression",
        "visibility": "public"
      },
      "geometry": {
        "type": "Point",
        "coordinates": [
          89.19,
          42.95
        ]
      }
    },
    {
      "type": "Feature",
      "id": "location_wind-cut-narrows",
      "properties": {
        "kind": "location",
        "category": "route-node",
        "label": "The Wind-Cut Narrows",
        "title": "The Wind-Cut Narrows",
        "description": "A canyon pinch-point where the road compresses into a single file—ideal for tolls, patrols, and ambushes.",
        "fantasyName": "The Wind-Cut Narrows",
        "visibility": "public"
      },
      "geometry": {
        "type": "Point",
        "coordinates": [
          94.55,
          40.33
        ]
      }
    },
    {
      "type": "Feature",
      "id": "location_yarkand",
      "properties": {
        "kind": "location",
        "category": "route-node",
        "label": "Yarkand",
        "title": "Yarkand",
        "description": "A major waypoint where the southern and northern routes converge. A hub of trade and communication.",
        "fantasyName": "Yarkand",
        "visibility": "public"
      },
      "geometry": {
        "type": "Point",
        "coordinates": [
          77.2411,
          38.417
        ]
      }
    },
    {
      "type": "Feature",
      "id": "location_yumen-waystation",
      "properties": {
        "kind": "location",
        "category": "route-node",
        "label": "Yumen Waystation (Outer)",
        "title": "Yumen Waystation (Outer)",
        "description": "Overflow staging post for caravans approaching the Jade Gate; paperwork, inspections, and remounts.",
        "fantasyName": "Yumen Waystation (Outer)",
        "visibility": "public"
      },
      "geometry": {
        "type": "Point",
        "coordinates": [
          94.78,
          40.42
        ]
      }
    }
  ]
}